NORAD_CAT_ID,OBJECT_NAME,OBJECT_TYPE,EPOCH,MEAN_MOTION,ECCENTRICITY,INCLINATION,RA_OF_ASC_NODE,ARG_OF_PERICENTER,MEAN_ANOMALY,BSTAR,MEAN_MOTION_DOT,MEAN_MOTION_DDOT,TLE_LINE0,TLE_LINE1,TLE_LINE2,SEMIMAJOR_AXIS,PERIOD,APOGEE,PERIGEE,DECAYED
54164.0,STARLINK-5278,PAYLOAD,2023-03-25 15:19:31,15.08856289,0.000141,53.2158,172.8691,110.8159,249.2984,0.0014468,0.00022823,0.0,0 STARLINK-5278,1 54164U 22141H   23084.63855571  .00022823  00000-0  14468-2 0  9999,2 54164  53.2158 172.8691 0001410 110.8159 249.2984 15.08856289 22803,6917.831,95.437,540.671,538.72,0.0
54164.0,STARLINK-5278,PAYLOAD,2023-03-25 23:16:27,15.088281,0.0001599,53.2159,171.3817,95.2421,264.8754,0.000803,0.00012511,0.0,0 STARLINK-5278,1 54164U 22141H   23084.96976732  .00012511  00000-0  80300-3 0  9990,2 54164  53.2159 171.3817 0001599  95.2421 264.8754 15.08828100 22858,6917.917,95.438,540.888,538.676,0.0
54164.0,STARLINK-5278,PAYLOAD,2023-03-26 11:59:35,15.08767936,0.0001382,53.2156,169.0013,115.2551,244.8585,0.00059968,9.25e-05,0.0,0 STARLINK-5278,1 54164U 22141H   23085.49971330  .00009250  00000-0  59968-3 0  9990,2 54164  53.2156 169.0013 0001382 115.2551 244.8585 15.08767936 22932,6918.101,95.442,540.922,539.01,0.0
54164.0,STARLINK-5278,PAYLOAD,2023-03-26 16:45:45,15.08773208,0.0001538,53.2155,168.1088,116.2224,243.8926,0.0016981,0.00026791,0.0,0 STARLINK-5278,1 54164U 22141H   23085.69844389  .00026791  00000-0  16981-2 0  9991,2 54164  53.2155 168.1088 0001538 116.2224 243.8926 15.08773208 22964,6918.085,95.442,541.014,538.886,0.0
54164.0,STARLINK-5278,PAYLOAD,2023-03-27 05:28:51,15.08819888,0.0001384,53.2158,165.7299,115.3829,244.7307,0.0022648,0.0003592,0.0,0 STARLINK-5278,1 54164U 22141H   23086.22837643  .00035920  00000-0  22648-2 0  9997,2 54164  53.2158 165.7299 0001384 115.3829 244.7307 15.08819888 23042,6917.942,95.439,540.764,538.849,0.0
54164.0,STARLINK-5278,PAYLOAD,2023-03-27 11:50:24,15.088388,0.0001414,53.2156,164.5392,121.0847,239.0284,0.0022312,0.00035399,0.0,0 STARLINK-5278,1 54164U 22141H   23086.49333736  .00035399  00000-0  22312-2 0  9998,2 54164  53.2156 164.5392 0001414 121.0847 239.0284 15.08838800 23089,6917.884,95.438,540.727,538.771,0.0
54164.0,STARLINK-5278,PAYLOAD,2023-03-27 16:36:33,15.08854021,0.0001427,53.216,163.6471,120.3802,239.7331,0.0022343,0.00035464,0.0,0 STARLINK-5278,1 54164U 22141H   23086.69205619  .00035464  00000-0  22343-2 0  9995,2 54164  53.2160 163.6471 0001427 120.3802 239.7331 15.08854021 23116,6917.838,95.437,540.69,538.715,0.0
54164.0,STARLINK-5278,PAYLOAD,2023-03-28 11:41:10,15.08860556,0.0001976,53.2167,160.0769,133.3545,226.7612,0.0010138,0.00015893,0.0,0 STARLINK-5278,1 54164U 22141H   23087.48693081  .00015893  00000-0  10138-2 0  9990,2 54164  53.2167 160.0769 0001976 133.3545 226.7612 15.08860556 23232,6917.818,95.436,541.05,538.316,0.0
54164.0,STARLINK-5278,PAYLOAD,2023-03-28 16:27:19,15.08884352,0.0001285,53.2162,159.187,115.134,244.9785,0.0020758,0.00032943,0.0,0 STARLINK-5278,1 54164U 22141H   23087.68564661  .00032943  00000-0  20758-2 0  9997,2 54164  53.2162 159.1870 0001285 115.1340 244.9785 15.08884352 23269,6917.745,95.435,540.499,538.721,0.0
54164.0,STARLINK-5278,PAYLOAD,2023-03-29 05:10:25,15.08848963,0.0001504,53.2162,156.8069,108.0561,252.0595,0.0015235,0.00024048,0.0,0 STARLINK-5278,1 54164U 22141H   23088.21557199  .00024048  00000-0  15235-2 0  9996,2 54164  53.2162 156.8069 0001504 108.0561 252.0595 15.08848963 23349,6917.853,95.437,540.758,538.678,0.0
54164.0,STARLINK-5278,PAYLOAD,2023-03-29 11:31:58,15.08845897,0.0001273,53.2165,155.6181,107.7726,252.3405,0.0013754,0.00021673,0.0,0 STARLINK-5278,1 54164U 22141H   23088.48053252  .00021673  00000-0  13754-2 0  9991,2 54164  53.2165 155.6181 0001273 107.7726 252.3405 15.08845897 23386,6917.862,95.437,540.608,538.847,0.0
54164.0,STARLINK-5278,PAYLOAD,2023-03-29 16:18:07,15.08852309,0.000136,53.2164,154.7249,110.5917,249.5221,0.0013077,0.00020592,0.0,0 STARLINK-5278,1 54164U 22141H   23088.67925060  .00020592  00000-0  13077-2 0  9994,2 54164  53.2164 154.7249 0001360 110.5917 249.5221 15.08852309 23415,6917.843,95.437,540.649,538.767,0.0
54164.0,STARLINK-5278,PAYLOAD,2023-03-29 21:04:16,15.08842168,0.0001097,53.2172,153.8329,91.3803,268.7314,0.00039167,5.951e-05,0.0,0 STARLINK-5278,1 54164U 22141H   23088.87797177  .00005951  00000-0  39167-3 0  9993,2 54164  53.2172 153.8329 0001097  91.3803 268.7314 15.08842168 23441,6917.874,95.437,540.498,538.98,0.0
54164.0,STARLINK-5278,PAYLOAD,2023-03-30 01:50:26,15.08840486,0.0001001,53.217,152.9424,80.8214,279.2892,0.00068466,0.00010625,0.0,0 STARLINK-5278,1 54164U 22141H   23089.07669238  .00010625  00000-0  68466-3 0  9990,2 54164  53.2170 152.9424 0001001  80.8214 279.2892 15.08840486 23471,6917.879,95.438,540.436,539.051,0.0
54164.0,STARLINK-5278,PAYLOAD,2023-03-30 14:33:31,15.08863547,0.000145,53.2162,150.5647,81.6887,278.4269,0.0011678,0.00018358,0.0,0 STARLINK-5278,1 54164U 22141H   23089.60660956  .00018358  00000-0  11678-2 0  9990,2 54164  53.2162 150.5647 0001450  81.6887 278.4269 15.08863547 23557,6917.808,95.436,540.676,538.67,0.0
54164.0,STARLINK-5278,PAYLOAD,2023-03-30 20:55:03,15.08846,0.0001101,53.2162,149.3758,103.9755,256.136,0.0005181,7.969e-05,0.0,0 STARLINK-5278,1 54164U 22141H   23089.87157075  .00007969  00000-0  51810-3 0  9991,2 54164  53.2162 149.3758 0001101 103.9755 256.1360 15.08846000 23595,6917.862,95.437,540.489,538.965,0.0
54164.0,STARLINK-5278,PAYLOAD,2023-04-01 03:07:23,15.08840965,0.0001777,53.215,143.7263,79.4155,280.7037,0.00076605,0.00011925,0.0,0 STARLINK-5278,1 54164U 22141H   23091.13013345  .00011925  00000-0  76605-3 0  9990,2 54164  53.2150 143.7263 0001777  79.4155 280.7037 15.08840965 23780,6917.877,95.437,540.972,538.513,0.0
54164.0,STARLINK-5278,PAYLOAD,2023-04-01 11:04:19,15.08829063,0.0001539,53.2162,142.2389,75.9472,284.1691,0.00083483,0.00013019,0.0,0 STARLINK-5278,1 54164U 22141H   23091.46133729  .00013019  00000-0  83483-3 0  9993,2 54164  53.2162 142.2389 0001539  75.9472 284.1691 15.08829063 23831,6917.914,95.438,540.843,538.714,0.0
54164.0,STARLINK-5278,PAYLOAD,2023-04-01 20:36:38,15.08838609,0.0001336,53.2162,140.4544,80.2844,279.8299,0.00078798,0.00012274,0.0,0 STARLINK-5278,1 54164U 22141H   23091.85877815  .00012274  00000-0  78798-3 0  9992,2 54164  53.2162 140.4544 0001336  80.2844 279.8299 15.08838609 23898,6917.885,95.438,540.674,538.825,0.0
54164.0,STARLINK-5278,PAYLOAD,2023-04-02 12:30:30,15.08831127,0.0001181,53.2158,137.4788,94.4482,265.6645,0.00037991,5.762e-05,0.0,0 STARLINK-5278,1 54164U 22141H   23092.52118462  .00005762  00000-0  37991-3 0  9997,2 54164  53.2158 137.4788 0001181  94.4482 265.6645 15.08831127 23999,6917.908,95.438,540.59,538.956,0.0
54164.0,STARLINK-5278,PAYLOAD,2023-04-02 20:27:26,15.08834748,0.0001188,53.2155,135.9927,91.7245,268.3883,0.00053757,8.277e-05,0.0,0 STARLINK-5278,1 54164U 22141H   23092.85238633  .00008277  00000-0  53757-3 0  9998,2 54164  53.2155 135.9927 0001188  91.7245 268.3883 15.08834748 24041,6917.896,95.438,540.583,538.94,0.0
54164.0,STARLINK-5278,PAYLOAD,2023-04-03 09:10:30,15.08858368,0.0001272,53.2163,133.6149,77.5792,282.5343,0.001026,0.00016087,0.0,0 STARLINK-5278,1 54164U 22141H   23093.38230257  .00016087  00000-0  10260-2 0  9990,2 54164  53.2163 133.6149 0001272  77.5792 282.5343 15.08858368 24126,6917.824,95.436,540.569,538.809,0.0
54164.0,STARLINK-5278,PAYLOAD,2023-04-03 13:56:40,15.08861893,0.000122,53.216,132.7208,87.6268,272.4864,0.00086405,0.00013498,0.0,0 STARLINK-5278,1 54164U 22141H   23093.58101911  .00013498  00000-0  86405-3 0  9994,2 54164  53.2160 132.7208 0001220  87.6268 272.4864 15.08861893 24158,6917.813,95.436,540.522,538.834,0.0
54164.0,STARLINK-5278,PAYLOAD,2023-04-04 12:12:03,15.08862989,0.0001474,53.2172,128.557,76.9338,283.1818,0.00036318,5.5e-05,0.0,0 STARLINK-5278,1 54164U 22141H   23094.50836963  .00005500  00000-0  36318-3 0  9992,2 54164  53.2172 128.5570 0001474  76.9338 283.1818 15.08862989 24296,6917.81,95.436,540.695,538.655,0.0
54164.0,STARLINK-5278,PAYLOAD,2023-04-04 13:47:26,15.08866769,0.0001481,53.2173,128.26,76.3366,283.7791,0.00044248,6.766e-05,0.0,0 STARLINK-5278,1 54164U 22141H   23094.57460772  .00006766  00000-0  44248-3 0  9996,2 54164  53.2173 128.2600 0001481  76.3366 283.7791 15.08866769 24309,6917.799,95.436,540.688,538.639,0.0
54164.0,STARLINK-5278,PAYLOAD,2023-04-05 08:52:04,15.08838019,0.0001245,53.2161,124.6944,91.2035,268.91,-0.00016514,-2.915e-05,0.0,0 STARLINK-5278,1 54164U 22141H   23095.36949401 -.00002915  00000-0 -16514-3 0  9994,2 54164  53.2161 124.6944 0001245  91.2035 268.9100 15.08838019 24423,6917.886,95.438,540.613,538.89,0.0
54164.0,STARLINK-5278,PAYLOAD,2023-04-05 18:24:23,15.08838244,0.0001244,53.2165,122.9077,88.3737,271.7398,-6.7562e-05,-1.363e-05,0.0,0 STARLINK-5278,1 54164U 22141H   23095.76693580 -.00001363  00000-0 -67562-4 0  9998,2 54164  53.2165 122.9077 0001244  88.3737 271.7398 15.08838244 24487,6917.886,95.438,540.611,538.89,0.0
54164.0,STARLINK-5278,PAYLOAD,2023-04-06 11:53:37,15.08842743,0.0001168,53.2157,119.6372,91.43,268.6825,0.00025364,3.751e-05,0.0,0 STARLINK-5278,1 54164U 22141H   23096.49557639  .00003751  00000-0  25364-3 0  9997,2 54164  53.2157 119.6372 0001168  91.4300 268.6825 15.08842743 24596,6917.872,95.437,540.545,538.929,0.0
54164.0,STARLINK-5278,PAYLOAD,2023-04-06 18:15:10,15.08838616,0.0001194,53.2159,118.4474,90.2386,269.8743,0.00017709,2.532e-05,0.0,0 STARLINK-5278,1 54164U 22141H   23096.76053856  .00002532  00000-0  17709-3 0  9999,2 54164  53.2159 118.4474 0001194  90.2386 269.8743 15.08838616 24639,6917.885,95.438,540.576,538.924,0.0
54164.0,STARLINK-5278,PAYLOAD,2023-04-07 10:09:01,15.08846426,0.0001176,53.2159,115.4735,90.8522,269.2605,0.00025841,3.828e-05,0.0,0 STARLINK-5278,1 54164U 22141H   23097.42293604  .00003828  00000-0  25841-3 0  9995,2 54164  53.2159 115.4735 0001176  90.8522 269.2605 15.08846426 24734,6917.861,95.437,540.539,538.912,0.0
